      2.10          N: GNSS NAV DATA                        RINEX VERSION / TYPE
fic2rin                                 11/28/2018 00:19:21 PGM / RUN BY / DATE
                                                            END OF HEADER
10 18 11 27  4  0  0.0 1.593362540007e-04-4.774847184308e-12 0.000000000000e+00
    2.100000000000e+01-1.809375000000e+01 4.376610874839e-09-3.082840334777e+00
   -8.735805749893e-07 4.023660556413e-03 1.084245741367e-05 5.153662151337e+03
    1.872000000000e+05-3.166496753693e-08 1.317246036585e+00 9.313225746155e-09
    9.615769166240e-01 1.705625000000e+02-2.819263664871e+00-7.762109037283e-09
    5.925246810313e-10 1.000000000000e+00 2.029000000000e+03 0.000000000000e+00
    2.400000000000e+00 0.000000000000e+00 1.862645149231e-09 2.100000000000e+01
    1.800060000000e+05 4.000000000000e+00
 9 18 11 27  4  0  0.0 4.888330586255e-04-3.524291969370e-12 0.000000000000e+00
    3.200000000000e+01 7.187500000000e+00 4.981636076567e-09 1.514456595425e+00
    3.818422555923e-07 1.390807679854e-03 6.262212991714e-06 5.153773180008e+03
    1.872000000000e+05 5.587935447693e-09 2.353838369925e+00-4.097819328308e-08
    9.524272022902e-01 2.532812500000e+02 1.675556093797e+00-8.202127365813e-09
    5.000208278745e-11 1.000000000000e+00 2.029000000000e+03 0.000000000000e+00
    2.400000000000e+00 0.000000000000e+00 1.396983861923e-09 3.200000000000e+01
    1.800060000000e+05 4.000000000000e+00
26 18 11 27  4  0  0.0 5.109421908855e-05 1.091393642128e-11 0.000000000000e+00
    2.800000000000e+01 1.399375000000e+02 4.640550440410e-09 2.964753765895e+00
    7.299706339836e-06 3.253966337070e-03 7.584691047668e-06 5.153763120651e+03
    1.872000000000e+05-6.146728992462e-08-1.843673052200e+00-2.421438694000e-08
    9.536246504773e-01 2.292500000000e+02 4.770184964779e-02-8.125695610695e-09
    1.685784505406e-10 1.000000000000e+00 2.029000000000e+03 0.000000000000e+00
    2.400000000000e+00 0.000000000000e+00 7.450580596924e-09 2.800000000000e+01
    1.800060000000e+05 4.000000000000e+00
24 18 11 27  4  0  0.0-5.873804911971e-05-5.684341886081e-13 0.000000000000e+00
    9.200000000000e+01 2.240625000000e+01 4.966992609465e-09-7.450612987480e-01
    1.203268766403e-06 7.711940677837e-03 9.398907423019e-06 5.153615961075e+03
    1.872000000000e+05 1.825392246246e-07-2.915630830310e+00 1.154839992523e-07
    9.404710068953e-01 1.877500000000e+02 5.535190369068e-01-8.182126532698e-09
   -4.293035965037e-10 1.000000000000e+00 2.029000000000e+03 0.000000000000e+00
    3.400000000000e+00 0.000000000000e+00 2.793967723846e-09 9.200000000000e+01
    1.800060000000e+05 4.000000000000e+00
25 18 11 27  4  0  0.0-6.827595643699e-04-5.570655048359e-12 0.000000000000e+00
    6.700000000000e+01 1.208125000000e+02 4.223390206869e-09-2.710958417888e+00
    6.167218089104e-06 7.648362661712e-03 6.770715117455e-06 5.153560827255e+03
    1.872000000000e+05 7.450580596924e-08-1.818398294079e+00-1.154839992523e-07
    9.721946019560e-01 2.551875000000e+02 8.508734875532e-01-7.877113827695e-09
    1.939366496685e-10 1.000000000000e+00 2.029000000000e+03 0.000000000000e+00
    2.400000000000e+00 0.000000000000e+00 5.587935447693e-09 6.700000000000e+01
    1.800060000000e+05 4.000000000000e+00
15 18 11 27  4  0  0.0-3.383755683899e-04 1.364242052659e-12 0.000000000000e+00
    1.010000000000e+02 8.562500000000e+00 5.680950920123e-09 1.641141102514e-01
    5.811452865601e-07 1.107056706678e-02 5.513429641724e-06 5.153588624954e+03
    1.872000000000e+05 1.676380634308e-08 2.278468801223e+00 1.881271600723e-07
    9.278871713680e-01 2.554687500000e+02 7.376005760018e-01-8.716791660790e-09
    3.035840740667e-11 1.000000000000e+00 2.029000000000e+03 0.000000000000e+00
    2.400000000000e+00 0.000000000000e+00-1.117587089539e-08 1.010000000000e+02
    1.800060000000e+05 4.000000000000e+00
17 18 11 27  4  0  0.0-2.621999010444e-05 5.002220859751e-12 0.000000000000e+00
    8.400000000000e+01-1.843750000000e+01 4.328394580722e-09 1.061172366294e+00
   -1.128762960434e-06 1.291922968812e-02 2.346932888031e-06 5.153648811340e+03
    1.872000000000e+05-2.346932888031e-07-7.222987820492e-01-2.048909664154e-08
    9.836354771430e-01 3.507187500000e+02-1.757203510648e+00-8.399635592824e-09
   -1.146476326769e-10 1.000000000000e+00 2.029000000000e+03 0.000000000000e+00
    2.400000000000e+00 0.000000000000e+00-1.117587089539e-08 8.400000000000e+01
    1.800060000000e+05 4.000000000000e+00
19 18 11 27  4  0  0.0-3.797076642513e-04 3.751665644813e-12 0.000000000000e+00
    7.300000000000e+01-3.543750000000e+01 4.262320399896e-09-2.461126062294e+00
   -1.773238182068e-06 9.434392559342e-03 1.691281795502e-06 5.153613933563e+03
    1.872000000000e+05 1.788139343262e-07-6.756855482609e-01 1.061707735062e-07
    9.813393365167e-01 3.552187500000e+02 1.315982559590e+00-8.119623929214e-09
   -1.107188976008e-11 1.000000000000e+00 2.029000000000e+03 0.000000000000e+00
    2.400000000000e+00 0.000000000000e+00-1.536682248116e-08 7.300000000000e+01
    1.800060000000e+05 4.000000000000e+00
32 18 11 27  4  0  0.0-3.417190164328e-04 1.477928890381e-11 0.000000000000e+00
    1.010000000000e+02 2.343750000000e+00 4.953063457831e-09 1.847137176380e+00
    1.508742570877e-07 2.341395011172e-03 5.956739187241e-06 5.153717889786e+03
    1.872000000000e+05-5.587935447693e-08 2.359682227333e+00 2.048909664154e-08
    9.567504807035e-01 2.583750000000e+02-2.612335760464e+00-8.170697485204e-09
   -3.214419607765e-12 1.000000000000e+00 2.029000000000e+03 0.000000000000e+00
    2.400000000000e+00 0.000000000000e+00 4.656612873077e-10 1.010000000000e+02
    1.800060000000e+05 4.000000000000e+00
31 18 11 27  4  0  0.0 7.688859477639e-05-2.614797267597e-12 0.000000000000e+00
    1.070000000000e+02 4.231250000000e+01 4.425898642158e-09-2.065724000988e+00
    1.944601535797e-06 9.082199772820e-03 1.089647412300e-05 5.153791549683e+03
    1.872000000000e+05-7.823109626770e-08-2.839508917950e+00-2.179294824600e-07
    9.619569227613e-01 1.735937500000e+02-6.933566799459e-02-7.832111953186e-09
   -3.914448766789e-10 1.000000000000e+00 2.029000000000e+03 0.000000000000e+00
    2.400000000000e+00 0.000000000000e+00-1.350417733192e-08 1.070000000000e+02
    1.800060000000e+05 4.000000000000e+00
29 18 11 27  4  0  0.0 3.277081996202e-04-7.958078640513e-12 0.000000000000e+00
    5.700000000000e+01-3.237500000000e+01 4.229104730616e-09 1.640404562760e+00
   -1.786276698112e-06 6.349746836349e-04 1.570209860802e-06 5.153596349716e+03
    1.872000000000e+05-1.676380634308e-08-7.114327327261e-01-7.636845111847e-08
    9.850143140056e-01 3.597187500000e+02 1.641148668727e+00-8.202127365813e-09
   -1.153619481453e-10 1.000000000000e+00 2.029000000000e+03 0.000000000000e+00
    2.400000000000e+00 0.000000000000e+00-1.024454832077e-08 5.700000000000e+01
    1.800060000000e+05 4.000000000000e+00
20 18 11 27  4  0  0.0 5.192253738642e-04 4.547473508865e-13 0.000000000000e+00
    1.100000000000e+02-1.859375000000e+01 5.010565853037e-09-1.315215877872e+00
   -9.723007678986e-07 4.480264731683e-03 1.106224954128e-05 5.153673076630e+03
    1.872000000000e+05-8.568167686462e-08 1.204897186016e+00 8.009374141693e-08
    9.291287850519e-01 1.511562500000e+02 2.177077346044e+00-8.189269687382e-09
    5.950247851707e-10 1.000000000000e+00 2.029000000000e+03 0.000000000000e+00
    2.400000000000e+00 0.000000000000e+00-8.381903171539e-09 1.100000000000e+02
    1.800060000000e+05 4.000000000000e+00
28 18 11 27  4  0  0.0 7.562222890556e-04 1.477928890381e-12 0.000000000000e+00
    1.750000000000e+02 1.009062500000e+02 3.956950537158e-09 1.946384843610e+00
    5.051493644714e-06 1.965129468590e-02 6.631016731262e-06 5.153695627213e+03
    1.872000000000e+05 3.129243850708e-07-1.733297372370e+00-2.365559339523e-07
    9.839309236895e-01 2.583750000000e+02-1.495555756746e+00-7.626031940555e-09
    1.239337337660e-10 1.000000000000e+00 2.029000000000e+03 0.000000000000e+00
    4.850000000000e+00 0.000000000000e+00-1.117587089539e-08 1.750000000000e+02
    1.800060000000e+05 4.000000000000e+00
 4 18 11 27  4  0  0.0-6.915722042322e-05-2.046363078989e-11 0.000000000000e+00
    7.300000000000e+01 1.403125000000e+01 4.998779647808e-09 1.247318211536e+00
    8.549541234970e-07 1.370905654039e-02 1.009553670883e-06 5.153672023773e+03
    1.872000000000e+05-8.568167686462e-08-8.752084393045e-01 1.657754182816e-07
    9.588349795084e-01 3.600625000000e+02 5.786301076608e-01-8.781080052945e-09
   -1.364342544629e-10 1.000000000000e+00 2.029000000000e+03 0.000000000000e+00
    2.400000000000e+00 6.300000000000e+01-5.587935447693e-09 7.300000000000e+01
    1.825560000000e+05 4.000000000000e+00
15 18 11 27  3 59 44.0-3.383741714060e-04 1.364242052659e-12 0.000000000000e+00
    3.000000000000e+00 8.562500000000e+00 5.680593762389e-09 1.617800054380e-01
    5.811452865601e-07 1.107056613546e-02 5.513429641724e-06 5.153588624954e+03
    1.871840000000e+05 1.676380634308e-08 2.278468947514e+00 1.881271600723e-07
    9.278871757568e-01 2.554687500000e+02 7.376007544778e-01-8.717148818524e-09
    3.035840740667e-11 1.000000000000e+00 2.029000000000e+03 0.000000000000e+00
    2.400000000000e+00 0.000000000000e+00-1.117587089539e-08 3.000000000000e+00
    1.851360000000e+05 4.000000000000e+00
28 18 11 27  3 59 44.0 7.562297396362e-04 1.591615728103e-12 0.000000000000e+00
    3.000000000000e+01 1.009062500000e+02 3.956950537158e-09 1.944051129396e+00
    5.051493644714e-06 1.965129084419e-02 6.631016731262e-06 5.153695621490e+03
    1.871840000000e+05 3.129243850708e-07-1.733297245096e+00-2.365559339523e-07
    9.839309222266e-01 2.583750000000e+02-1.495555696766e+00-7.626031940555e-09
    1.239337337660e-10 1.000000000000e+00 2.029000000000e+03 0.000000000000e+00
    2.400000000000e+00 0.000000000000e+00-1.117587089539e-08 3.000000000000e+01
    1.853460000000e+05 4.000000000000e+00
